FENGYUN 1C DEB          
1 36224U 99025DUZ 17345.23831235  .00000040  00000-0  44927-4 0  9993
2 36224  99.1031 348.6347 0115865 319.6032  39.6576 14.11579949231773
